C/2022 U3 (Bok),h,07/28.6327/2024,33.6608,272.7870,189.1229,1.000900,4.826469,2000,7.5,4.0
# From MPEC 2023-W26
C/2022 U4 (Bok),e,52.0478,132.9160,88.9938,2750,0.0000068,0.99894611,0.0000,08/03.6203/2023,2000,g 10.5,4.0
# From MPEC 2024-H50
C/2022 V2 (Lemmon),e,98.9014,332.8634,168.9486,36.67817,0.0044370,0.94373306,1.8951,01/02.0/2025,2000,g 12.0,4.0
# From MPEC 2023-CD7
P/2022 W1 (Rankin),e,13.4653,38.8227,17.9058,6.974117,0.0535143,0.51661092,44.8899,01/02.0/2025,2000,g 12.5,4.0
# From MPEC 2024-EF7
C/2022 W2 (ATLAS),e,63.5090,320.4429,123.2978,344.0229,0.0001545,0.99091946,0.0000,03/08.7749/2023,2000,g 11.5,4.0
# From MPEC 2024-C04
C/2022 W3 (Leonard),e,103.5751,132.2901,116.5229,278.5316,0.0002120,0.99498252,0.0000,06/22.7829/2023,2000,g 13.0,4.0
# From MPEC 2023-M14
C/2022 Y1 (Hogan),e,18.8554,285.8820,174.8455,12.60345,0.0220277,0.76519853,16.8823,01/02.0/2025,2000,g  9.0,4.0
# From MPEC 2023-TM6
C/2022 Y2 (Lemmon),e,165.8848,216.3517,105.4232,19.69504,0.0112764,0.87099708,7.3480,01/02.0/2025,2000,g 13.5,4.0
# From MPEC 2024-GJ3
C/2023 A1 (Leonard),e,94.7389,318.2801,159.2499,220.9806,0.0003000,0.99169499,0.0000,03/18.6372/2023,2000,g 14.5,4.0
# From MPEC 2023-J95
C/2023 A2 (SWAN),e,94.7070,94.5055,142.5192,419.9952,0.0001145,0.99774776,0.0000,01/20.3638/2023,2000,g 13.5,4.0
# From MPEC 2025-A40
C/2023 A3 (Tsuchinshan-ATLAS),h,09/27.7416/2024,139.1108,21.5606,308.4937,1.000099,0.391456,2000,6.5,3.2
# From MPEC 2024-F34
P/2023 B1 (PANSTARRS),e,14.5887,78.5584,81.6092,7.062578,0.0525121,0.13060059,32.0736,01/02.0/2025,2000,g  5.5,4.0
# From MPEC 2023-XP6
C/2023 B2 (ATLAS),e,40.7687,218.1077,317.3606,590.1698,0.0000687,0.99704946,0.0000,03/10.5371/2023,2000,g 14.5,4.0
# From MPEC 2023-F81
P/2023 B3 (PANSTARRS),e,9.1576,153.9934,240.3328,4.549087,0.1015822,0.12266604,160.3795,01/02.0/2025,2000,g 10.5,4.0
# From MPEC 2024-YC7
C/2023 C2 (ATLAS),e,48.3208,301.0043,357.4558,2709,0.0000070,0.99912568,0.0000,11/16.8098/2024,2000,g  7.0,4.0
# From MPEC 2024-D33
C/2023 E1 (ATLAS),e,38.2804,164.5160,105.9656,19.29813,0.0116260,0.94674893,6.4064,01/02.0/2025,2000,g 15.5,4.0
# From MPEC 2023-N01
C/2023 F1 (PANSTARRS),e,131.6951,25.3066,216.7376,253.6173,0.0002440,0.99325787,0.0000,06/28.2334/2023,2000,g 16.0,4.0
# From MPEC 2024-YC7
C/2023 F3 (ATLAS),h,02/02.6352/2025,145.9637,109.4630,265.5312,1.003874,5.190793,2000,6.0,4.0
# From MPEC 2024-RQ6
C/2023 H1 (PANSTARRS),e,21.7818,292.6472,333.7617,761.7255,0.0000469,0.99416093,0.0000,11/28.7095/2024,2000,g  8.5,4.0
# From MPEC 2024-GJ3
C/2023 H2 (Lemmon),e,113.7523,217.0546,150.6688,245.0896,0.0002569,0.99634856,0.0000,10/29.1649/2023,2000,g 14.0,4.0
# From MPEC 2023-R20
C/2023 H3 (PANSTARRS),e,2.4891,55.0955,193.2826,13.61657,0.0196156,0.61573808,6.2468,01/02.0/2025,2000,g 10.0,4.0
# From MPEC 2023-SQ0
A/2023 H4,e,76.5835,230.8247,65.0137,145.1140,0.0005638,0.98536862,0.0000,08/08.8730/2023,2000,g 18.0,22.0
# From MPEC 2025-A40
C/2023 H5 (Lemmon),h,06/30.2047/2025,97.8570,159.4800,60.0873,1.000383,4.312745,2000,7.0,4.0
# From MPEC 2024-UA9
P/2023 JN16 (Lemmon),e,3.7026,11.8760,353.1551,2.695378,0.2227278,0.14679989,0.5324,01/02.0/2025,2000,g 14.0,4.0
# From MPEC 2024-GJ3
C/2023 K1 (ATLAS),e,137.9978,223.7026,337.4335,668.2039,0.0000571,0.99694879,0.0000,09/07.6633/2023,2000,g 13.0,4.0
# From MPEC 2023-N01
P/2023 M1 (PANSTARRS),e,12.2886,216.8603,79.6981,6.843325,0.0550558,0.58698813,21.1755,01/02.0/2025,2000,g 13.5,4.0
# From MPEC 2024-TD8
P/2023 M2 (PANSTARRS),e,19.7279,83.2497,243.2930,5.574027,0.0748946,0.36998889,39.3414,01/02.0/2025,2000,g 12.5,4.0
# From MPEC 2024-TP3
P/2023 M4 (ATLAS),e,7.5922,296.2908,320.5861,5.448417,0.0774994,0.27892957,77.0243,01/02.0/2025,2000,g  7.5,4.0
# From MPEC 2024-MB8
C/2023 P1 (Nishimura),e,132.4768,66.8453,116.2771,56.70244,0.0023083,0.99603737,0.0000,09/17.6457/2023,2000,g 10.0,4.0
# From MPEC 2025-A40
C/2023 Q1 (PANSTARRS),h,12/01.1427/2024,36.6429,7.1290,84.4161,1.005228,2.575702,2000,10.0,4.0
# From MPEC 2024-N80
C/2023 Q2 (PANSTARRS),e,104.0617,92.6796,171.7051,350.4048,0.0001503,0.99084078,0.0000,06/24.0047/2024,2000,g 11.5,4.0
# From MPEC 2025-A40
C/2023 R1 (PANSTARRS),h,04/13.5619/2026,149.3164,62.5562,144.2822,1.001961,3.569446,2000,6.0,4.0
# From MPEC 2024-L77
C/2023 R2 (PANSTARRS),h,08/12.1491/2024,30.6889,188.9099,337.3047,1.000238,0.905162,2000,10.5,4.0
# From MPEC 2023-UR6
A/2023 R3,e,12.0836,347.3481,86.9175,696.7669,0.0000536,0.99805095,0.0000,12/18.1939/2023,2000,g 20.0,22.0
# From MPEC 2024-YC7
C/2023 RN3 (ATLAS),e,10.3530,207.0671,130.5625,10.17173,0.0303817,0.49091314,21.6521,01/02.0/2025,2000,g  7.5,4.0
# From MPEC 2025-A40
P/2023 S1,e,9.1571,317.2902,180.2887,3.845058,0.1307223,0.31868775,353.0571,01/02.0/2025,2000,g 11.5,4.0
# From MPEC 2023-XP6
C/2023 S2 (ATLAS),e,19.8353,229.7611,78.6885,197.9706,0.0003538,0.99464803,0.0000,10/16.0843/2023,2000,g 15.0,4.0
# From MPEC 2024-P23
C/2023 S3 (Lemmon),e,140.4969,233.8319,281.5561,28.47556,0.0064863,0.97086001,0.0000,01/19.6408/2024,2000,g 16.0,4.0
# From MPEC 2024-BE0
P/2023 T1 (PANSTARRS),e,6.6123,249.5759,202.8528,4.226140,0.1134458,0.33335212,25.4296,01/02.0/2025,2000,g 14.0,4.0
# From MPEC 2024-GJ3
C/2023 T2 (Borisov),e,48.5947,317.5305,111.2046,225.6801,0.0002907,0.99115663,0.0000,12/22.7834/2023,2000,g 14.5,4.0
# From MPEC 2025-A40
C/2023 T3 (Fuls),e,27.2221,246.0004,302.8462,798.2277,0.0000437,0.99555476,0.0000,01/25.3371/2025,2000,g  8.5,4.0
# From MPEC 2024-VB7
C/2023 TD22 (Lemmon),e,170.4899,5.5579,32.5385,48.25646,0.0029402,0.95116068,0.3167,01/02.0/2025,2000,g 12.5,4.0
# From MPEC 2025-A40
C/2023 U1 (Fuls),e,108.1457,305.8067,255.6309,2299,0.0000089,0.99783652,0.0000,10/12.8007/2024,2000,g  8.0,4.0
# From MPEC 2024-YC7
C/2023 V1 (Lemmon),h,07/13.0355/2025,102.0137,15.0354,103.3125,1.000270,5.092568,2000,8.5,4.0
# From MPEC 2025-A40
P/2023 V2 (PANSTARRS),e,9.8882,95.4735,330.5334,7.225645,0.0507445,0.57040560,16.9078,01/02.0/2025,2000,g 13.5,4.0
# From MPEC 2024-A43
C/2023 V3 (PANSTARRS),e,40.5424,91.3131,291.8790,13.21787,0.0205098,0.66121702,10.5361,01/02.0/2025,2000,g 11.5,4.0
# From MPEC 2024-UQ8
C/2023 V4 (Camarasa-Duszanowicz),h,05/30.3740/2024,67.1302,66.3258,50.8618,1.001062,1.121778,2000,12.0,4.0
# From MPEC 2024-GJ3
C/2023 V5 (Leonard),h,12/13.8914/2023,73.5685,31.5193,56.9632,1.009388,0.846253,2000,21.5,4.0
# From MPEC 2025-A40
P/2023 V6 (PANSTARRS),e,3.9706,189.7757,193.0814,5.308456,0.0805845,0.17629259,60.9094,01/02.0/2025,2000,g 11.5,4.0
# From MPEC 2024-GJ3
C/2023 X1 (Leonard),e,110.5873,137.0048,321.4638,156.8754,0.0005016,0.99394026,0.0000,10/18.0354/2023,2000,g 13.5,3.2
# From MPEC 2025-A40
C/2023 X2 (Lemmon),h,12/27.6644/2025,76.9918,66.3092,64.7030,1.000781,5.090239,2000,8.5,3.2
# From MPEC 2024-A43
P/2023 X3 (PANSTARRS),e,4.4834,62.0119,40.8388,4.245510,0.1126703,0.28623266,28.7275,01/02.0/2025,2000,g 15.5,4.0
# From MPEC 2025-A40
C/2023 X4 (Hogan),e,11.5944,28.7667,100.5720,9.916858,0.0315604,0.63113023,7.0085,01/02.0/2025,2000,g 12.0,4.0
# From MPEC 2024-DA2
C/2023 X7 (PANSTARRS),h,05/15.0228/2025,69.0621,119.2036,354.3718,1.002708,4.820486,2000,9.0,4.0
# From MPEC 2024-JU4
P/2023 Y1 (Gibbs),e,6.3842,78.8556,51.4583,3.749547,0.1357488,0.44529732,54.1851,01/02.0/2025,2000,g 17.0,4.0
# From MPEC 2025-A40
P/2023 Y2 (Gibbs),e,6.9929,79.2276,16.8685,3.746360,0.1359220,0.39230756,69.4518,01/02.0/2025,2000,g 15.5,4.0
# From MPEC 2025-A40
C/2024 A1 (ATLAS),h,06/13.7198/2025,94.4471,112.1408,353.3109,1.001590,3.875361,2000,7.0,4.0
# From MPEC 2025-A40
C/2024 A2 (ATLAS),e,119.1169,78.1670,295.5543,32.56666,0.0053033,0.94224765,1.3157,01/02.0/2025,2000,g 12.5,4.0
# From MPEC 2024-YC7
C/2024 B1 (Lemmon),h,10/07.7043/2024,70.9041,79.1878,66.2103,1.000858,1.633715,2000,13.0,4.0
# From MPEC 2025-A40
C/2024 B2 (Lemmon),e,99.8499,294.3790,130.3409,3526,0.0000047,0.99884354,0.0000,10/06.0815/2023,2000,g 11.5,4.0
# From MPEC 2024-M41
C/2024 C1 (PANSTARRS),e,14.2269,83.8086,94.4667,10.57120,0.0286760,0.58255176,3.5595,01/02.0/2025,2000,g 11.5,4.0
# From MPEC 2024-JU4
C/2024 C2 (PANSTARRS),e,27.2843,66.4412,87.5454,16.21071,0.0151008,0.44534452,358.9808,01/02.0/2025,2000,g  6.0,4.0
# From MPEC 2024-GJ3
C/2024 C3 (PANSTARRS),e,22.4593,359.7085,159.6594,11.65838,0.0247598,0.42422316,10.4173,01/02.0/2025,2000,g  9.0,4.0
# From MPEC 2024-Q20
C/2024 C4 (ATLAS),e,79.2853,220.6814,321.5089,83.72336,0.0012866,0.98243152,0.0000,01/30.1922/2024,2000,g 14.5,4.0
# From MPEC 2025-A40
A/2024 D1,e,132.4538,179.6714,125.7665,7796,0.0000014,0.99914126,0.0000,12/03.2893/2027,2000,g 11.0,22.0
# From MPEC 2024-YC7
C/2024 E1 (Wierzchos),h,01/20.7692/2026,75.2377,108.0848,243.6463,1.000032,0.565691,2000,7.0,4.0
# From MPEC 2024-JU4
C/2024 E2 (Bok),e,155.6468,135.6497,358.0762,51.60789,0.0026585,0.85093470,1.1581,01/02.0/2025,2000,g  8.0,4.0
# From MPEC 2024-JU4
P/2024 F1 (PANSTARRS),e,7.0056,251.5413,229.5579,3.443424,0.1542475,0.45994332,66.9885,01/02.0/2025,2000,g 16.0,4.0
# From MPEC 2024-Q20
C/2024 F2 (PANSTARRS),e,13.7417,138.9431,112.9022,9.947596,0.0314143,0.60109033,4.9299,01/02.0/2025,2000,g 11.0,4.0
# From MPEC 2024-UA9
P/2024 FG9 (Nanshan-Hahn),e,1.7313,253.0425,245.9204,3.256958,0.1676817,0.50984925,38.0025,01/02.0/2025,2000,g 14.0,4.0
# From MPEC 2024-PC5
C/2024 G1 (Wierzchos),e,95.3989,30.6018,128.2229,122.3130,0.0007286,0.96786758,0.0531,01/02.0/2025,2000,g 10.0,4.0
# From MPEC 2025-A40
C/2024 G2 (ATLAS),e,122.1304,171.3917,328.7299,751.3524,0.0000479,0.99288180,0.0000,06/13.4871/2025,2000,g  7.0,4.0
# From MPEC 2025-A40
C/2024 G3 (ATLAS),h,01/13.4283/2025,116.8467,220.3376,108.1225,1.000010,0.093540,2000,9.0,4.0
# From MPEC 2024-P23
C/2024 G4 (PANSTARRS),e,33.0264,152.9898,131.4279,2974,0.0000061,0.99835235,0.0000,03/21.7236/2026,2000,g  8.0,4.0
# From MPEC 2024-JC6
C/2024 G5 (Leonard),e,50.3876,316.3966,209.5675,551.0633,0.0000762,0.99464149,0.0000,09/07.0145/2024,2000,g 13.0,4.0
# From MPEC 2024-RQ6
C/2024 G6 (ATLAS),h,02/20.8943/2026,120.4580,250.9518,23.4549,1.002349,6.429268,2000,5.5,4.0
# From MPEC 2024-Q20
